{"type":"FeatureCollection","source":"https://gis.esaulet.kz/server/rest/services/Hosted/raiony/FeatureServer/0","retrieved_at":"2026-09-23","note":"Геометрия из опубликованного слоя геосервиса. Данные симулятора синтетические; Сарайшык не входит в учебный датасет.","features":[{"type":"Feature","properties":{"id":"saryarka","name":"Сарыарка","in_dataset":true,"label_point":[71.321062,51.199588]},"geometry":{"type":"Polygon","coordinates":[[[71.303179,51.23575],[71.301585,51.233235],[71.288745,51.237321],[71.279721,51.240171],[71.26811,51.243858],[71.265858,51.244568],[71.260316,51.246317],[71.255676,51.238796],[71.247904,51.229019],[71.247384,51.228365],[71.245663,51.226199],[71.244705,51.225134],[71.247736,51.224383],[71.246168,51.221095],[71.241095,51.215367],[71.241282,51.215203],[71.241266,51.214607],[71.241458,51.214153],[71.240541,51.213766],[71.240453,51.213534],[71.240852,51.213329],[71.240757,51.212691],[71.240127,51.212522],[71.240051,51.212339],[71.240623,51.212037],[71.241191,51.211908],[71.241142,51.211676],[71.240685,51.211474],[71.2407,51.211325],[71.241162,51.211279],[71.241113,51.21108],[71.240454,51.21105],[71.240101,51.210883],[71.239666,51.210896],[71.239655,51.210764],[71.240116,51.210635],[71.240068,51.210485],[71.239384,51.210406],[71.239426,51.210249],[71.239927,51.210244],[71.239169,51.209875],[71.239008,51.210064],[71.238783,51.210088],[71.238592,51.209681],[71.237998,51.20976],[71.237447,51.209632],[71.237836,51.209204],[71.237631,51.208863],[71.237304,51.208687],[71.23736,51.208464],[71.238149,51.208569],[71.239852,51.20762],[71.241534,51.207575],[71.242836,51.206766],[71.243091,51.204411],[71.242742,51.202782],[71.24135,51.202809],[71.240201,51.203289],[71.240499,51.20251],[71.240029,51.201969],[71.240426,51.201406],[71.242218,51.20063],[71.243402,51.200064],[71.244718,51.199112],[71.245034,51.19857],[71.244377,51.198308],[71.243396,51.198352],[71.242333,51.197829],[71.243488,51.196926],[71.245455,51.196567],[71.248833,51.194991],[71.249315,51.194112],[71.249242,51.193653],[71.250014,51.193214],[71.250727,51.193505],[71.251425,51.193388],[71.251796,51.192996],[71.251893,51.192603],[71.252668,51.192637],[71.25282,51.192415],[71.251376,51.19078],[71.251413,51.190587],[71.252114,51.190247],[71.253037,51.190296],[71.253478,51.191187],[71.254058,51.191313],[71.254748,51.190909],[71.255123,51.190338],[71.255311,51.189938],[71.255077,51.189628],[71.255697,51.18936],[71.256949,51.189483],[71.256995,51.190157],[71.257449,51.19031],[71.258264,51.189942],[71.259324,51.189978],[71.260209,51.190227],[71.259961,51.190813],[71.260311,51.191009],[71.260108,51.191602],[71.260504,51.191769],[71.260555,51.192156],[71.260907,51.19223],[71.261231,51.191924],[71.261747,51.19177],[71.261921,51.191549],[71.261152,51.19115],[71.261497,51.190264],[71.262071,51.190053],[71.262189,51.189767],[71.262465,51.189625],[71.262724,51.189835],[71.264524,51.189946],[71.264814,51.189633],[71.264388,51.18915],[71.264836,51.188938],[71.265346,51.189106],[71.265965,51.189633],[71.266682,51.189738],[71.267038,51.189561],[71.267079,51.189131],[71.267234,51.188702],[71.268522,51.189038],[71.269078,51.189645],[71.269639,51.18947],[71.269475,51.189024],[71.270091,51.188992],[71.270424,51.188844],[71.270682,51.189096],[71.271116,51.189092],[71.271569,51.189281],[71.272028,51.189083],[71.272507,51.189079],[71.272649,51.18875],[71.273278,51.188597],[71.273429,51.188411],[71.273228,51.188195],[71.273222,51.188194],[71.273207,51.188179],[71.274071,51.188108],[71.275452,51.187888],[71.276826,51.187637],[71.278244,51.187645],[71.279661,51.187632],[71.281065,51.187757],[71.28241,51.188058],[71.283711,51.188432],[71.284975,51.188848],[71.286268,51.189233],[71.287624,51.189508],[71.289037,51.18962],[71.290464,51.189585],[71.291866,51.189395],[71.293224,51.18914],[71.294457,51.188688],[71.295561,51.188126],[71.296511,51.187455],[71.297277,51.186718],[71.297754,51.185871],[71.298389,51.185069],[71.299432,51.184457],[71.300513,51.183867],[71.301826,51.183545],[71.303243,51.183463],[71.304656,51.183416],[71.306071,51.183306],[71.307466,51.183111],[71.308783,51.182763],[71.310094,51.182405],[71.311325,51.181947],[71.312566,51.181501],[71.313808,51.181057],[71.31503,51.180614],[71.316258,51.180181],[71.317512,51.179809],[71.318686,51.179301],[71.31993,51.178903],[71.321073,51.178364],[71.322231,51.177835],[71.323166,51.177158],[71.324026,51.17644],[71.324859,51.175711],[71.325813,51.175075],[71.326975,51.174558],[71.328225,51.174121],[71.329518,51.173743],[71.330818,51.173375],[71.33224,51.173322],[71.33364,51.173407],[71.335044,51.173481],[71.336462,51.173512],[71.337884,51.17351],[71.339305,51.17341],[71.340679,51.17318],[71.341985,51.172826],[71.343244,51.172407],[71.344316,51.171813],[71.345354,51.171198],[71.346231,51.170513],[71.346954,51.169735],[71.347693,51.168965],[71.348477,51.168208],[71.349338,51.167519],[71.350423,51.166934],[71.351589,51.166415],[71.352797,51.165947],[71.35399,51.165462],[71.355362,51.16522],[71.356785,51.165167],[71.358187,51.165211],[71.359587,51.16526],[71.360993,51.165294],[71.362416,51.165233],[71.363839,51.165173],[71.365257,51.165057],[71.36666,51.164887],[71.368083,51.164826],[71.369493,51.164675],[71.370912,51.164565],[71.372332,51.164456],[71.373751,51.164347],[71.375171,51.164239],[71.376591,51.164132],[71.378007,51.164004],[71.379427,51.1639],[71.380837,51.163749],[71.382258,51.163757],[71.383678,51.163654],[71.385096,51.163644],[71.386519,51.163583],[71.387938,51.163473],[71.389361,51.163412],[71.390784,51.163351],[71.3922,51.163222],[71.393632,51.163169],[71.395035,51.162995],[71.396281,51.162558],[71.396967,51.161779],[71.397706,51.161015],[71.398597,51.160312],[71.399559,51.159651],[71.400552,51.159015],[71.40177,51.158551],[71.403065,51.158169],[71.404395,51.157847],[71.405774,51.157608],[71.407165,51.157442],[71.408594,51.157449],[71.409925,51.157557],[71.411263,51.15786],[71.41259,51.158166],[71.413912,51.158497],[71.415181,51.158913],[71.416448,51.15933],[71.417705,51.159761],[71.418962,51.160188],[71.420349,51.160386],[71.421751,51.160261],[71.422958,51.159794],[71.423892,51.159113],[71.424563,51.158341],[71.42511,51.157515],[71.425635,51.156682],[71.426126,51.155839],[71.426604,51.154992],[71.426944,51.15412],[71.427455,51.153283],[71.428262,51.152587],[71.430774,51.153539],[71.428259,51.161455],[71.427306,51.164982],[71.42404,51.177152],[71.435769,51.178484],[71.438533,51.178944],[71.442295,51.180196],[71.444798,51.182333],[71.446196,51.183874],[71.446528,51.184293],[71.445267,51.184745],[71.442951,51.18586],[71.426745,51.190782],[71.404293,51.19776],[71.39487,51.200525],[71.378727,51.205706],[71.367834,51.209213],[71.367494,51.209299],[71.367159,51.209392],[71.366828,51.209491],[71.366502,51.209597],[71.366182,51.209708],[71.365867,51.209826],[71.365557,51.209949],[71.365254,51.210078],[71.364957,51.210213],[71.364667,51.210353],[71.364384,51.210499],[71.364107,51.21065],[71.363838,51.210807],[71.363577,51.210968],[71.363323,51.211134],[71.363078,51.211305],[71.362841,51.211481],[71.362612,51.21166],[71.362392,51.211845],[71.362181,51.212033],[71.36198,51.212225],[71.361787,51.212421],[71.361604,51.21262],[71.361431,51.212823],[71.359777,51.214732],[71.359499,51.215026],[71.359212,51.215317],[71.358917,51.215604],[71.358614,51.215888],[71.358303,51.216168],[71.357984,51.216445],[71.357657,51.216719],[71.357323,51.216988],[71.35698,51.217254],[71.35663,51.217516],[71.356273,51.217774],[71.355908,51.218028],[71.35562,51.218246],[71.355323,51.218459],[71.355017,51.218668],[71.354704,51.218872],[71.354382,51.21907],[71.354052,51.219264],[71.353714,51.219452],[71.353369,51.219635],[71.353017,51.219812],[71.352658,51.219984],[71.352292,51.220149],[71.351919,51.220309],[71.35154,51.220463],[71.351155,51.220611],[71.350764,51.220753],[71.303179,51.23575]]]}},{"type":"Feature","properties":{"id":"baikonyr","name":"Байконур","in_dataset":true,"label_point":[71.456751,51.228245]},"geometry":{"type":"MultiPolygon","coordinates":[[[[71.397053,51.274181],[71.390654,51.288803],[71.388832,51.29262],[71.385109,51.302342],[71.35779,51.29806],[71.355992,51.297779],[71.355616,51.297721],[71.358374,51.290275],[71.358976,51.288702],[71.360918,51.284052],[71.361341,51.283038],[71.362264,51.280601],[71.364155,51.275924],[71.366412,51.271219],[71.366301,51.271197],[71.361572,51.270264],[71.353623,51.268694],[71.346693,51.267329],[71.345943,51.268515],[71.343126,51.267471],[71.342124,51.267114],[71.34083,51.268733],[71.336051,51.267059],[71.334909,51.266655],[71.32704,51.259814],[71.319161,51.252865],[71.31182,51.245331],[71.304019,51.237074],[71.303179,51.23575],[71.350764,51.220753],[71.351155,51.220611],[71.35154,51.220463],[71.351919,51.220309],[71.352292,51.220149],[71.352658,51.219984],[71.353017,51.219812],[71.353369,51.219635],[71.353714,51.219452],[71.354052,51.219264],[71.354382,51.21907],[71.354704,51.218872],[71.355017,51.218668],[71.355323,51.218459],[71.35562,51.218246],[71.355908,51.218028],[71.356273,51.217774],[71.35663,51.217516],[71.35698,51.217254],[71.357323,51.216988],[71.357657,51.216719],[71.357984,51.216445],[71.358303,51.216168],[71.358614,51.215888],[71.358917,51.215604],[71.359212,51.215317],[71.359499,51.215026],[71.359777,51.214732],[71.361431,51.212823],[71.361604,51.21262],[71.361787,51.212421],[71.36198,51.212225],[71.362181,51.212033],[71.362392,51.211845],[71.362612,51.21166],[71.362841,51.211481],[71.363078,51.211305],[71.363323,51.211134],[71.363577,51.210968],[71.363838,51.210807],[71.364107,51.21065],[71.364384,51.210499],[71.364667,51.210353],[71.364957,51.210213],[71.365254,51.210078],[71.365557,51.209949],[71.365867,51.209826],[71.366182,51.209708],[71.366502,51.209597],[71.366828,51.209491],[71.367159,51.209392],[71.367494,51.209299],[71.367834,51.209213],[71.378727,51.205706],[71.39487,51.200525],[71.404293,51.19776],[71.426745,51.190782],[71.442951,51.18586],[71.445267,51.184745],[71.446528,51.184293],[71.446196,51.183874],[71.444798,51.182333],[71.442295,51.180196],[71.438533,51.178944],[71.435769,51.178484],[71.42404,51.177152],[71.427306,51.164982],[71.428259,51.161455],[71.430774,51.153539],[71.428262,51.152587],[71.42821,51.151894],[71.429245,51.151051],[71.429314,51.150982],[71.429392,51.150916],[71.429477,51.150854],[71.42957,51.150796],[71.42967,51.150743],[71.429776,51.150695],[71.429887,51.150652],[71.430003,51.150614],[71.430124,51.150583],[71.430248,51.150557],[71.430375,51.150537],[71.431731,51.150255],[71.433084,51.149968],[71.433444,51.149902],[71.433801,51.149831],[71.434155,51.149753],[71.434505,51.149669],[71.434851,51.149579],[71.435194,51.149483],[71.435532,51.149381],[71.435865,51.149273],[71.436194,51.14916],[71.436517,51.149041],[71.436835,51.148916],[71.437148,51.148786],[71.437455,51.148651],[71.437756,51.14851],[71.43805,51.148365],[71.438338,51.148214],[71.43862,51.148058],[71.438894,51.147898],[71.439162,51.147733],[71.441305,51.148756],[71.443216,51.149466],[71.447763,51.15202],[71.451169,51.153029],[71.45234,51.153098],[71.453257,51.1534],[71.453711,51.153924],[71.455161,51.154696],[71.459495,51.155508],[71.463207,51.157147],[71.469369,51.160139],[71.470995,51.161794],[71.472489,51.162308],[71.474022,51.163817],[71.475858,51.164051],[71.476941,51.165436],[71.479013,51.165933],[71.481607,51.168444],[71.48452,51.168171],[71.485785,51.169616],[71.487088,51.170384],[71.488776,51.172117],[71.489714,51.172445],[71.491247,51.172537],[71.492064,51.1742],[71.495137,51.175641],[71.497254,51.175899],[71.497603,51.175936],[71.504875,51.183623],[71.505503,51.183388],[71.505756,51.183301],[71.506014,51.183219],[71.506276,51.183143],[71.506542,51.183072],[71.506812,51.183007],[71.507085,51.182948],[71.507361,51.182895],[71.50764,51.182848],[71.507921,51.182807],[71.508205,51.182772],[71.50849,51.182743],[71.508776,51.182721],[71.509064,51.182704],[71.509352,51.182694],[71.509848,51.182703],[71.510345,51.182707],[71.510841,51.182706],[71.511337,51.182701],[71.51165,51.182686],[71.511962,51.182664],[71.512272,51.182635],[71.512581,51.1826],[71.512888,51.182559],[71.513193,51.182511],[71.513495,51.182457],[71.513793,51.182397],[71.514089,51.182331],[71.514381,51.182258],[71.514669,51.18218],[71.514952,51.182096],[71.515231,51.182005],[71.515506,51.181909],[71.515774,51.181808],[71.516038,51.1817],[71.520132,51.180147],[71.521158,51.179736],[71.521446,51.179604],[71.521728,51.179467],[71.522005,51.179325],[71.522275,51.179179],[71.522539,51.179029],[71.522797,51.178874],[71.523048,51.178714],[71.523929,51.17811],[71.524947,51.178805],[71.52664,51.179171],[71.528711,51.179171],[71.532249,51.180538],[71.533353,51.181385],[71.533113,51.182848],[71.534603,51.183696],[71.536156,51.184288],[71.538231,51.18582],[71.539687,51.187353],[71.539732,51.187471],[71.539789,51.187588],[71.539856,51.187703],[71.539934,51.187815],[71.540022,51.187924],[71.54012,51.188029],[71.540227,51.188131],[71.540344,51.188229],[71.54047,51.188322],[71.540604,51.18841],[71.540746,51.188493],[71.540896,51.188571],[71.541053,51.188643],[71.541216,51.18871],[71.541385,51.18877],[71.54156,51.188824],[71.541739,51.188871],[71.541922,51.188912],[71.544085,51.188987],[71.544352,51.189106],[71.544625,51.189219],[71.544903,51.189328],[71.545186,51.189431],[71.545473,51.189529],[71.545766,51.189621],[71.546062,51.189708],[71.546362,51.18979],[71.546666,51.189866],[71.546974,51.189936],[71.547285,51.19],[71.547598,51.190059],[71.547799,51.190089],[71.548003,51.190113],[71.548208,51.19013],[71.548415,51.19014],[71.548622,51.190142],[71.548829,51.190138],[71.549035,51.190127],[71.54924,51.190109],[71.549444,51.190084],[71.550356,51.189771],[71.550502,51.189726],[71.550652,51.189688],[71.550806,51.189656],[71.550963,51.189631],[71.551123,51.189613],[71.551284,51.189601],[71.551446,51.189596],[71.551608,51.189598],[71.55177,51.189606],[71.55193,51.189622],[71.552089,51.189644],[71.552244,51.189673],[71.552317,51.189689],[71.553221,51.189887],[71.554434,51.189986],[71.557167,51.190662],[71.557981,51.190991],[71.558012,51.191136],[71.558052,51.191279],[71.558101,51.191422],[71.558159,51.191563],[71.558225,51.191702],[71.558301,51.19184],[71.558385,51.191976],[71.558477,51.192109],[71.558577,51.192241],[71.560962,51.193246],[71.562904,51.195068],[71.565861,51.196164],[71.568452,51.196553],[71.571831,51.198729],[71.575957,51.200266],[71.580039,51.202762],[71.582942,51.203291],[71.583259,51.202671],[71.582866,51.203444],[71.582846,51.203483],[71.582165,51.204823],[71.58208,51.20499],[71.574054,51.220382],[71.59838,51.235738],[71.609187,51.242544],[71.618635,51.248513],[71.604792,51.265373],[71.604196,51.26607],[71.601923,51.268516],[71.594005,51.277498],[71.576479,51.263096],[71.566981,51.257482],[71.566168,51.252809],[71.562585,51.248746],[71.558307,51.248523],[71.555687,51.247026],[71.55105,51.243146],[71.471679,51.26329],[71.481091,51.270442],[71.488813,51.276431],[71.498228,51.283693],[71.498386,51.290059],[71.490838,51.288617],[71.475908,51.286412],[71.46855,51.278463],[71.450382,51.271586],[71.428117,51.274671],[71.413781,51.270945],[71.400043,51.267345],[71.397053,51.274181]]],[[[71.692507,51.348843],[71.694906,51.351009],[71.692689,51.351003],[71.692041,51.35099],[71.687125,51.350895],[71.683875,51.350825],[71.667899,51.339833],[71.657927,51.336751],[71.641572,51.331614],[71.644352,51.328631],[71.651297,51.321558],[71.656319,51.318241],[71.656688,51.317997],[71.665281,51.313824],[71.671759,51.309467],[71.674011,51.311108],[71.670203,51.313749],[71.672995,51.315576],[71.671413,51.316559],[71.672537,51.317641],[71.679163,51.32208],[71.683999,51.32563],[71.686536,51.328936],[71.69159,51.332312],[71.693777,51.33376],[71.694086,51.33352],[71.697176,51.335255],[71.699224,51.338345],[71.703676,51.342766],[71.706009,51.347552],[71.703836,51.348503],[71.701071,51.349606],[71.697595,51.346451],[71.692507,51.348843]]],[[[71.332814,51.273264],[71.315478,51.296452],[71.303731,51.292276],[71.306107,51.279497],[71.29597,51.274523],[71.307084,51.265612],[71.332814,51.273264]]]]}},{"type":"Feature","properties":{"id":"nura","name":"Нура","in_dataset":true,"label_point":[71.315135,51.105483]},"geometry":{"type":"Polygon","coordinates":[[[71.42821,51.151894],[71.428262,51.152587],[71.427455,51.153283],[71.426944,51.15412],[71.426604,51.154992],[71.426126,51.155839],[71.425635,51.156682],[71.42511,51.157515],[71.424563,51.158341],[71.423892,51.159113],[71.422958,51.159794],[71.421751,51.160261],[71.420349,51.160386],[71.418962,51.160188],[71.417705,51.159761],[71.416448,51.15933],[71.415181,51.158913],[71.413912,51.158497],[71.41259,51.158166],[71.411263,51.15786],[71.409925,51.157557],[71.408594,51.157449],[71.407165,51.157442],[71.405774,51.157608],[71.404395,51.157847],[71.403065,51.158169],[71.40177,51.158551],[71.400552,51.159015],[71.399559,51.159651],[71.398597,51.160312],[71.397706,51.161015],[71.396967,51.161779],[71.396281,51.162558],[71.395035,51.162995],[71.393632,51.163169],[71.3922,51.163222],[71.390784,51.163351],[71.389361,51.163412],[71.387938,51.163473],[71.386519,51.163583],[71.385096,51.163644],[71.383678,51.163654],[71.382258,51.163757],[71.380837,51.163749],[71.379427,51.1639],[71.378007,51.164004],[71.376591,51.164132],[71.375171,51.164239],[71.373751,51.164347],[71.372332,51.164456],[71.370912,51.164565],[71.369493,51.164675],[71.368083,51.164826],[71.36666,51.164887],[71.365257,51.165057],[71.363839,51.165173],[71.362416,51.165233],[71.360993,51.165294],[71.359587,51.16526],[71.358187,51.165211],[71.356785,51.165167],[71.355362,51.16522],[71.35399,51.165462],[71.352797,51.165947],[71.351589,51.166415],[71.350423,51.166934],[71.349338,51.167519],[71.348477,51.168208],[71.347693,51.168965],[71.346954,51.169735],[71.346231,51.170513],[71.345354,51.171198],[71.344316,51.171813],[71.343244,51.172407],[71.341985,51.172826],[71.340679,51.17318],[71.339305,51.17341],[71.337884,51.17351],[71.336462,51.173512],[71.335044,51.173481],[71.33364,51.173407],[71.33224,51.173322],[71.330818,51.173375],[71.329518,51.173743],[71.328225,51.174121],[71.326975,51.174558],[71.325813,51.175075],[71.324859,51.175711],[71.324026,51.17644],[71.323166,51.177158],[71.322231,51.177835],[71.321073,51.178364],[71.31993,51.178903],[71.318686,51.179301],[71.317512,51.179809],[71.316258,51.180181],[71.31503,51.180614],[71.313808,51.181057],[71.312566,51.181501],[71.311325,51.181947],[71.310094,51.182405],[71.308783,51.182763],[71.307466,51.183111],[71.306071,51.183306],[71.304656,51.183416],[71.303243,51.183463],[71.301826,51.183545],[71.300513,51.183867],[71.299432,51.184457],[71.298389,51.185069],[71.297754,51.185871],[71.297277,51.186718],[71.296511,51.187455],[71.295561,51.188126],[71.294457,51.188688],[71.293224,51.18914],[71.291866,51.189395],[71.290464,51.189585],[71.289037,51.18962],[71.287624,51.189508],[71.286268,51.189233],[71.284975,51.188848],[71.283711,51.188432],[71.28241,51.188058],[71.281065,51.187757],[71.279661,51.187632],[71.278244,51.187645],[71.276826,51.187637],[71.275452,51.187888],[71.274071,51.188108],[71.273207,51.188179],[71.273222,51.188194],[71.272121,51.188042],[71.272155,51.18758],[71.271979,51.187067],[71.270734,51.186691],[71.269868,51.186147],[71.270265,51.185935],[71.270147,51.185077],[71.270417,51.184616],[71.270917,51.184488],[71.27114,51.18419],[71.271078,51.184082],[71.271052,51.184185],[71.270738,51.183795],[71.270872,51.183356],[71.271106,51.183344],[71.271566,51.183774],[71.271946,51.183937],[71.272716,51.183714],[71.272828,51.183434],[71.272383,51.183298],[71.271791,51.182792],[71.272034,51.182535],[71.273306,51.181368],[71.274259,51.181454],[71.27514,51.182154],[71.275716,51.182103],[71.275789,51.181543],[71.276086,51.181559],[71.276279,51.181466],[71.276155,51.181265],[71.276306,51.181119],[71.27631,51.180865],[71.275978,51.180329],[71.276342,51.180118],[71.276721,51.18028],[71.277315,51.180324],[71.277584,51.180807],[71.278356,51.180424],[71.278781,51.180373],[71.279098,51.180481],[71.279517,51.180832],[71.279832,51.181142],[71.280582,51.180946],[71.280904,51.180666],[71.281087,51.179839],[71.281493,51.179602],[71.281791,51.179631],[71.281915,51.179394],[71.265398,51.174321],[71.252984,51.175963],[71.254259,51.162487],[71.254436,51.158226],[71.242779,51.157637],[71.242594,51.152394],[71.23858,51.152319],[71.2385,51.149705],[71.236169,51.149637],[71.236243,51.132969],[71.235013,51.131329],[71.228746,51.123134],[71.226031,51.114094],[71.217966,51.110777],[71.225886,51.100189],[71.225949,51.100087],[71.226371,51.099409],[71.231777,51.09071],[71.234025,51.087027],[71.245439,51.068332],[71.248761,51.068524],[71.250197,51.068192],[71.251752,51.067484],[71.253213,51.065873],[71.253991,51.065585],[71.255529,51.06367],[71.255791,51.06182],[71.254532,51.058401],[71.25399,51.05601],[71.254874,51.05392],[71.254748,51.049777],[71.254993,51.04895],[71.257763,51.04736],[71.260188,51.045572],[71.263303,51.041718],[71.265948,51.040613],[71.267871,51.038798],[71.268329,51.036705],[71.269294,51.034299],[71.272451,51.032589],[71.275578,51.030294],[71.277546,51.028016],[71.28068,51.025209],[71.2841,51.023938],[71.285941,51.022293],[71.288963,51.021702],[71.29066,51.021883],[71.302892,51.022883],[71.307729,51.022376],[71.312271,51.023499],[71.318407,51.023925],[71.323752,51.02303],[71.331691,51.021638],[71.335473,51.019272],[71.360204,51.015878],[71.368563,51.014729],[71.380018,51.013134],[71.380655,51.013147],[71.38103,51.013154],[71.380588,51.01903],[71.380641,51.021865],[71.381452,51.028909],[71.381985,51.031956],[71.382479,51.033366],[71.383874,51.037331],[71.38792,51.048635],[71.391149,51.057822],[71.395199,51.069049],[71.396195,51.071414],[71.400159,51.082469],[71.405873,51.09848],[71.41054,51.111707],[71.41142,51.116183],[71.413561,51.128446],[71.414346,51.133302],[71.415019,51.135112],[71.415728,51.136448],[71.423352,51.148319],[71.42821,51.151894]]]}},{"type":"Feature","properties":{"id":"almaty","name":"Алматы","in_dataset":true,"label_point":[71.550466,51.158097]},"geometry":{"type":"MultiPolygon","coordinates":[[[[71.611836,51.191167],[71.608305,51.192266],[71.587817,51.198556],[71.583259,51.202671],[71.582942,51.203291],[71.580039,51.202762],[71.575957,51.200266],[71.571831,51.198729],[71.568452,51.196553],[71.565861,51.196164],[71.562904,51.195068],[71.560962,51.193246],[71.558577,51.192241],[71.558477,51.192109],[71.558385,51.191976],[71.558301,51.19184],[71.558225,51.191702],[71.558159,51.191563],[71.558101,51.191422],[71.558052,51.191279],[71.558012,51.191136],[71.557981,51.190991],[71.557167,51.190662],[71.554434,51.189986],[71.553221,51.189887],[71.552317,51.189689],[71.552244,51.189673],[71.552089,51.189644],[71.55193,51.189622],[71.55177,51.189606],[71.551608,51.189598],[71.551446,51.189596],[71.551284,51.189601],[71.551123,51.189613],[71.550963,51.189631],[71.550806,51.189656],[71.550652,51.189688],[71.550502,51.189726],[71.550356,51.189771],[71.549444,51.190084],[71.54924,51.190109],[71.549035,51.190127],[71.548829,51.190138],[71.548622,51.190142],[71.548415,51.19014],[71.548208,51.19013],[71.548003,51.190113],[71.547799,51.190089],[71.547598,51.190059],[71.547285,51.19],[71.546974,51.189936],[71.546666,51.189866],[71.546362,51.18979],[71.546062,51.189708],[71.545766,51.189621],[71.545473,51.189529],[71.545186,51.189431],[71.544903,51.189328],[71.544625,51.189219],[71.544352,51.189106],[71.544085,51.188987],[71.541922,51.188912],[71.541739,51.188871],[71.54156,51.188824],[71.541385,51.18877],[71.541216,51.18871],[71.541053,51.188643],[71.540896,51.188571],[71.540746,51.188493],[71.540604,51.18841],[71.54047,51.188322],[71.540344,51.188229],[71.540227,51.188131],[71.54012,51.188029],[71.540022,51.187924],[71.539934,51.187815],[71.539856,51.187703],[71.539789,51.187588],[71.539732,51.187471],[71.539687,51.187353],[71.538231,51.18582],[71.536156,51.184288],[71.534603,51.183696],[71.533113,51.182848],[71.533353,51.181385],[71.532249,51.180538],[71.528711,51.179171],[71.52664,51.179171],[71.524947,51.178805],[71.523929,51.17811],[71.523048,51.178714],[71.522797,51.178874],[71.522539,51.179029],[71.522275,51.179179],[71.522005,51.179325],[71.521728,51.179467],[71.521446,51.179604],[71.521158,51.179736],[71.520132,51.180147],[71.516038,51.1817],[71.515774,51.181808],[71.515506,51.181909],[71.515231,51.182005],[71.514952,51.182096],[71.514669,51.18218],[71.514381,51.182258],[71.514089,51.182331],[71.513793,51.182397],[71.513495,51.182457],[71.513193,51.182511],[71.512888,51.182559],[71.512581,51.1826],[71.512272,51.182635],[71.511962,51.182664],[71.51165,51.182686],[71.511337,51.182701],[71.510841,51.182706],[71.510345,51.182707],[71.509848,51.182703],[71.509352,51.182694],[71.509064,51.182704],[71.508776,51.182721],[71.50849,51.182743],[71.508205,51.182772],[71.507921,51.182807],[71.50764,51.182848],[71.507361,51.182895],[71.507085,51.182948],[71.506812,51.183007],[71.506542,51.183072],[71.506276,51.183143],[71.506014,51.183219],[71.505756,51.183301],[71.505503,51.183388],[71.504875,51.183623],[71.497603,51.175936],[71.497254,51.175899],[71.495137,51.175641],[71.492064,51.1742],[71.491247,51.172537],[71.489714,51.172445],[71.488776,51.172117],[71.487088,51.170384],[71.485785,51.169616],[71.48452,51.168171],[71.481607,51.168444],[71.479013,51.165933],[71.476941,51.165436],[71.475858,51.164051],[71.474022,51.163817],[71.472489,51.162308],[71.470995,51.161794],[71.469369,51.160139],[71.463207,51.157147],[71.459495,51.155508],[71.455161,51.154696],[71.453711,51.153924],[71.453257,51.1534],[71.45234,51.153098],[71.451169,51.153029],[71.447763,51.15202],[71.443216,51.149466],[71.441305,51.148756],[71.439162,51.147733],[71.44008,51.147044],[71.440619,51.14621],[71.441214,51.145393],[71.441449,51.144505],[71.441608,51.143608],[71.441745,51.14271],[71.441831,51.141812],[71.441872,51.140908],[71.442153,51.140029],[71.442824,51.139235],[71.443279,51.138269],[71.443908,51.137389],[71.444444,51.136481],[71.444989,51.135572],[71.445582,51.134529],[71.446227,51.13342],[71.446755,51.132403],[71.447117,51.13136],[71.447204,51.131206],[71.462182,51.128879],[71.472527,51.127276],[71.479103,51.126242],[71.483423,51.125585],[71.4846,51.125574],[71.486961,51.126172],[71.519383,51.135379],[71.520019,51.135784],[71.524256,51.139916],[71.527045,51.142959],[71.529696,51.145776],[71.529833,51.146053],[71.52997,51.146431],[71.530005,51.146896],[71.529958,51.147551],[71.529933,51.148091],[71.529927,51.148607],[71.530023,51.149035],[71.530377,51.149628],[71.531326,51.150714],[71.533778,51.153258],[71.535331,51.152729],[71.552517,51.145164],[71.585369,51.137786],[71.622854,51.129992],[71.705117,51.113008],[71.710595,51.123429],[71.714668,51.131341],[71.713482,51.131517],[71.71092,51.132048],[71.706549,51.133677],[71.699801,51.136373],[71.691817,51.139573],[71.688683,51.14043],[71.684558,51.140538],[71.673042,51.140089],[71.673035,51.141013],[71.645201,51.139901],[71.641292,51.147442],[71.635275,51.159047],[71.631324,51.167649],[71.627715,51.175383],[71.627581,51.175657],[71.627217,51.176399],[71.621449,51.188178],[71.611836,51.191167]]],[[[71.782108,51.150524],[71.784817,51.165499],[71.740518,51.165979],[71.747006,51.162156],[71.760868,51.145809],[71.765887,51.144793],[71.782108,51.150524]]]]}},{"type":"Feature","properties":{"id":"saraishyk","name":"Сарайшык","in_dataset":false,"label_point":[71.560053,51.119468]},"geometry":{"type":"Polygon","coordinates":[[[71.705117,51.113008],[71.622854,51.129992],[71.585369,51.137786],[71.552517,51.145164],[71.535331,51.152729],[71.533778,51.153258],[71.531326,51.150714],[71.530377,51.149628],[71.530023,51.149035],[71.529927,51.148607],[71.529933,51.148091],[71.529958,51.147551],[71.530005,51.146896],[71.52997,51.146431],[71.529833,51.146053],[71.529696,51.145776],[71.527045,51.142959],[71.524256,51.139916],[71.520019,51.135784],[71.519383,51.135379],[71.486961,51.126172],[71.4846,51.125574],[71.483423,51.125585],[71.479103,51.126242],[71.472527,51.127276],[71.462182,51.128879],[71.447204,51.131206],[71.447768,51.130208],[71.44862,51.129326],[71.449904,51.128525],[71.451378,51.127912],[71.451864,51.127073],[71.452412,51.126243],[71.452072,51.125369],[71.451692,51.124501],[71.451312,51.123631],[71.450143,51.123127],[71.448876,51.122703],[71.447609,51.12228],[71.44665,51.121622],[71.446296,51.120748],[71.445935,51.11986],[71.446628,51.119077],[71.447326,51.118289],[71.44802,51.117504],[71.448711,51.116724],[71.44935,51.115914],[71.449818,51.11506],[71.450118,51.114186],[71.450179,51.113281],[71.450235,51.112378],[71.450301,51.111483],[71.450378,51.110587],[71.450626,51.10971],[71.451191,51.108889],[71.452006,51.108162],[71.453044,51.107553],[71.454276,51.107101],[71.455562,51.106715],[71.456848,51.106328],[71.458209,51.106048],[71.459612,51.105884],[71.46102,51.105718],[71.462441,51.105603],[71.463872,51.105592],[71.465293,51.105581],[71.466724,51.10557],[71.468151,51.105558],[71.469577,51.105547],[71.471,51.105489],[71.47236,51.105214],[71.473557,51.10473],[71.474411,51.104013],[71.475068,51.103216],[71.476157,51.102643],[71.477344,51.102144],[71.478534,51.101645],[71.479719,51.101147],[71.481031,51.100792],[71.482426,51.100572],[71.483832,51.100415],[71.485231,51.100226],[71.486628,51.100038],[71.488027,51.099849],[71.489418,51.099662],[71.490817,51.099745],[71.491963,51.100276],[71.493116,51.100811],[71.494269,51.101346],[71.495423,51.101881],[71.496576,51.102416],[71.497752,51.10293],[71.498967,51.103384],[71.500375,51.103532],[71.501797,51.103473],[71.503181,51.103279],[71.504431,51.102849],[71.505734,51.10248],[71.507016,51.102085],[71.508281,51.101671],[71.509547,51.101257],[71.510819,51.10085],[71.512117,51.100474],[71.513475,51.100624],[71.514759,51.101014],[71.515907,51.101548],[71.517109,51.10202],[71.518282,51.102529],[71.519484,51.103002],[71.520814,51.103301],[71.522238,51.103432],[71.523649,51.103581],[71.52508,51.103593],[71.526489,51.103458],[71.527907,51.103327],[71.529302,51.10315],[71.530712,51.103015],[71.532131,51.102881],[71.533535,51.102719],[71.534958,51.102594],[71.536363,51.102438],[71.537781,51.1023],[71.539177,51.102129],[71.540596,51.102004],[71.541994,51.101828],[71.543408,51.101707],[71.544811,51.101545],[71.546213,51.10141],[71.547633,51.101258],[71.549047,51.101124],[71.550471,51.101042],[71.551847,51.100815],[71.553262,51.100703],[71.554657,51.100534],[71.556067,51.100388],[71.557467,51.100249],[71.558872,51.100103],[71.560277,51.099953],[71.561677,51.099787],[71.563082,51.099641],[71.564492,51.099492],[71.565916,51.099417],[71.567363,51.099264],[71.568745,51.099057],[71.570149,51.098918],[71.571565,51.098769],[71.57297,51.098596],[71.574385,51.098483],[71.575779,51.098297],[71.577179,51.098151],[71.578594,51.098035],[71.579994,51.097845],[71.581414,51.097716],[71.582814,51.09756],[71.584209,51.09739],[71.585618,51.097277],[71.587018,51.097123],[71.588324,51.096762],[71.589687,51.096471],[71.590993,51.09611],[71.592234,51.095663],[71.593601,51.09539],[71.5949,51.095031],[71.596218,51.094667],[71.597468,51.094219],[71.598778,51.093883],[71.600074,51.093504],[71.601391,51.093163],[71.602741,51.092866],[71.603998,51.092429],[71.605355,51.092144],[71.606565,51.091672],[71.607906,51.091343],[71.608311,51.091416],[71.609026,51.092238],[71.614932,51.099505],[71.635715,51.094591],[71.658674,51.089412],[71.678826,51.085444],[71.6804,51.090577],[71.681627,51.091237],[71.683092,51.091688],[71.684323,51.091602],[71.685125,51.092081],[71.684629,51.092686],[71.685354,51.093245],[71.68635,51.093068],[71.686917,51.093219],[71.687307,51.09152],[71.688349,51.091493],[71.68915,51.092181],[71.689147,51.092509],[71.688859,51.093135],[71.688906,51.093254],[71.690376,51.092841],[71.69137,51.093022],[71.691842,51.093232],[71.691553,51.093858],[71.692311,51.093919],[71.694064,51.093745],[71.694402,51.092821],[71.694782,51.092584],[71.695114,51.092585],[71.695585,51.092854],[71.695824,51.092527],[71.695733,51.09196],[71.694932,51.091391],[71.694412,51.091241],[71.69465,51.091003],[71.695267,51.090856],[71.695883,51.090797],[71.695838,51.09038],[71.695651,51.090141],[71.696081,51.089486],[71.696675,51.089241],[71.697265,51.089489],[71.699206,51.089464],[71.700382,51.090779],[71.700737,51.092123],[71.702404,51.092872],[71.703779,51.092637],[71.704445,51.092132],[71.708655,51.092858],[71.70879,51.094081],[71.709118,51.094559],[71.709917,51.095485],[71.709819,51.095992],[71.709392,51.096229],[71.708728,51.096347],[71.708114,51.096107],[71.707546,51.096076],[71.706589,51.096823],[71.708341,51.097688],[71.709523,51.097959],[71.711176,51.098679],[71.714202,51.099522],[71.717611,51.09959],[71.718611,51.098846],[71.719227,51.098758],[71.719936,51.099029],[71.721069,51.099568],[71.722248,51.100436],[71.72271,51.102345],[71.723345,51.102706],[71.724064,51.103114],[71.724504,51.103363],[71.725733,51.103665],[71.727392,51.103609],[71.728911,51.103046],[71.728971,51.100869],[71.729067,51.100601],[71.730591,51.099143],[71.731162,51.098757],[71.732536,51.098581],[71.734058,51.097422],[71.735246,51.096709],[71.736572,51.096741],[71.737897,51.097043],[71.739077,51.097612],[71.73917,51.09797],[71.738739,51.098893],[71.738924,51.099639],[71.739486,51.100774],[71.740241,51.101312],[71.741992,51.101465],[71.740976,51.10528],[71.738889,51.105782],[71.713561,51.111239],[71.705117,51.113008]]]}},{"type":"Feature","properties":{"id":"esil","name":"Есиль","in_dataset":true,"label_point":[71.464315,51.042732]},"geometry":{"type":"MultiPolygon","coordinates":[[[[71.488027,51.099849],[71.486628,51.100038],[71.485231,51.100226],[71.483832,51.100415],[71.482426,51.100572],[71.481031,51.100792],[71.479719,51.101147],[71.478534,51.101645],[71.477344,51.102144],[71.476157,51.102643],[71.475068,51.103216],[71.474411,51.104013],[71.473557,51.10473],[71.47236,51.105214],[71.471,51.105489],[71.469577,51.105547],[71.468151,51.105558],[71.466724,51.10557],[71.465293,51.105581],[71.463872,51.105592],[71.462441,51.105603],[71.46102,51.105718],[71.459612,51.105884],[71.458209,51.106048],[71.456848,51.106328],[71.455562,51.106715],[71.454276,51.107101],[71.453044,51.107553],[71.452006,51.108162],[71.451191,51.108889],[71.450626,51.10971],[71.450378,51.110587],[71.450301,51.111483],[71.450235,51.112378],[71.450179,51.113281],[71.450118,51.114186],[71.449818,51.11506],[71.44935,51.115914],[71.448711,51.116724],[71.44802,51.117504],[71.447326,51.118289],[71.446628,51.119077],[71.445935,51.11986],[71.446296,51.120748],[71.44665,51.121622],[71.447609,51.12228],[71.448876,51.122703],[71.450143,51.123127],[71.451312,51.123631],[71.451692,51.124501],[71.452072,51.125369],[71.452412,51.126243],[71.451864,51.127073],[71.451378,51.127912],[71.449904,51.128525],[71.44862,51.129326],[71.447768,51.130208],[71.447117,51.13136],[71.446755,51.132403],[71.446227,51.13342],[71.445582,51.134529],[71.444989,51.135572],[71.444444,51.136481],[71.443908,51.137389],[71.443279,51.138269],[71.442824,51.139235],[71.442153,51.140029],[71.441872,51.140908],[71.441831,51.141812],[71.441745,51.14271],[71.441608,51.143608],[71.441449,51.144505],[71.441214,51.145393],[71.440619,51.14621],[71.44008,51.147044],[71.439162,51.147733],[71.438894,51.147898],[71.43862,51.148058],[71.438338,51.148214],[71.43805,51.148365],[71.437756,51.14851],[71.437455,51.148651],[71.437148,51.148786],[71.436835,51.148916],[71.436517,51.149041],[71.436194,51.14916],[71.435865,51.149273],[71.435532,51.149381],[71.435194,51.149483],[71.434851,51.149579],[71.434505,51.149669],[71.434155,51.149753],[71.433801,51.149831],[71.433444,51.149902],[71.433084,51.149968],[71.431731,51.150255],[71.430375,51.150537],[71.430248,51.150557],[71.430124,51.150583],[71.430003,51.150614],[71.429887,51.150652],[71.429776,51.150695],[71.42967,51.150743],[71.42957,51.150796],[71.429477,51.150854],[71.429392,51.150916],[71.429314,51.150982],[71.429245,51.151051],[71.42821,51.151894],[71.423352,51.148319],[71.415728,51.136448],[71.415019,51.135112],[71.414346,51.133302],[71.413561,51.128446],[71.41142,51.116183],[71.41054,51.111707],[71.405873,51.09848],[71.400159,51.082469],[71.396195,51.071414],[71.395199,51.069049],[71.391149,51.057822],[71.38792,51.048635],[71.383874,51.037331],[71.382479,51.033366],[71.381985,51.031956],[71.381452,51.028909],[71.380641,51.021865],[71.380588,51.01903],[71.38103,51.013154],[71.381508,51.013164],[71.381678,51.013167],[71.400178,51.010316],[71.402779,51.009233],[71.415047,51.007273],[71.430909,51.004963],[71.435283,51.004156],[71.436763,51.003116],[71.437953,51.003682],[71.454013,51.000834],[71.454173,51.000856],[71.453896,50.998309],[71.451651,50.983316],[71.456326,50.982567],[71.452861,50.969547],[71.451523,50.964895],[71.450908,50.960439],[71.463196,50.958459],[71.462182,50.952769],[71.461145,50.950519],[71.460573,50.947201],[71.466707,50.947685],[71.469216,50.945822],[71.471631,50.937656],[71.482692,50.939618],[71.483098,50.938705],[71.486554,50.930821],[71.520792,50.930696],[71.525337,50.930686],[71.546934,50.930894],[71.547436,50.934034],[71.548731,50.94654],[71.554282,50.968299],[71.552626,50.975617],[71.53808,50.987193],[71.537927,50.987366],[71.537784,50.987543],[71.53765,50.987722],[71.537527,50.987905],[71.537414,50.98809],[71.537312,50.988277],[71.53722,50.988467],[71.537139,50.988659],[71.537069,50.988852],[71.53701,50.989047],[71.536962,50.989243],[71.536925,50.98944],[71.536899,50.989637],[71.536884,50.989835],[71.53688,50.990034],[71.537036,51.006866],[71.537078,51.007019],[71.53713,51.007171],[71.537193,51.007322],[71.537266,51.00747],[71.537349,51.007617],[71.537442,51.007761],[71.537545,51.007903],[71.537658,51.008041],[71.53778,51.008177],[71.537911,51.008308],[71.538051,51.008437],[71.538199,51.008561],[71.538356,51.008681],[71.538521,51.008797],[71.538694,51.008908],[71.538874,51.009014],[71.539062,51.009115],[71.539256,51.009211],[71.539457,51.009302],[71.544141,51.011773],[71.555844,51.015382],[71.550252,51.029613],[71.539764,51.048133],[71.545536,51.048902],[71.547431,51.051113],[71.555885,51.048867],[71.564225,51.057428],[71.569765,51.06216],[71.570017,51.062375],[71.576144,51.067591],[71.579439,51.070396],[71.587439,51.074403],[71.588015,51.074691],[71.603493,51.085868],[71.608311,51.091416],[71.607906,51.091343],[71.606565,51.091672],[71.605355,51.092144],[71.603998,51.092429],[71.602741,51.092866],[71.601391,51.093163],[71.600074,51.093504],[71.598778,51.093883],[71.597468,51.094219],[71.596218,51.094667],[71.5949,51.095031],[71.593601,51.09539],[71.592234,51.095663],[71.590993,51.09611],[71.589687,51.096471],[71.588324,51.096762],[71.587018,51.097123],[71.585618,51.097277],[71.584209,51.09739],[71.582814,51.09756],[71.581414,51.097716],[71.579994,51.097845],[71.578594,51.098035],[71.577179,51.098151],[71.575779,51.098297],[71.574385,51.098483],[71.57297,51.098596],[71.571565,51.098769],[71.570149,51.098918],[71.568745,51.099057],[71.567363,51.099264],[71.565916,51.099417],[71.564492,51.099492],[71.563082,51.099641],[71.561677,51.099787],[71.560277,51.099953],[71.558872,51.100103],[71.557467,51.100249],[71.556067,51.100388],[71.554657,51.100534],[71.553262,51.100703],[71.551847,51.100815],[71.550471,51.101042],[71.549047,51.101124],[71.547633,51.101258],[71.546213,51.10141],[71.544811,51.101545],[71.543408,51.101707],[71.541994,51.101828],[71.540596,51.102004],[71.539177,51.102129],[71.537781,51.1023],[71.536363,51.102438],[71.534958,51.102594],[71.533535,51.102719],[71.532131,51.102881],[71.530712,51.103015],[71.529302,51.10315],[71.527907,51.103327],[71.526489,51.103458],[71.52508,51.103593],[71.523649,51.103581],[71.522238,51.103432],[71.520814,51.103301],[71.519484,51.103002],[71.518282,51.102529],[71.517109,51.10202],[71.515907,51.101548],[71.514759,51.101014],[71.513475,51.100624],[71.512117,51.100474],[71.510819,51.10085],[71.509547,51.101257],[71.508281,51.101671],[71.507016,51.102085],[71.505734,51.10248],[71.504431,51.102849],[71.503181,51.103279],[71.501797,51.103473],[71.500375,51.103532],[71.498967,51.103384],[71.497752,51.10293],[71.496576,51.102416],[71.495423,51.101881],[71.494269,51.101346],[71.493116,51.100811],[71.491963,51.100276],[71.490817,51.099745],[71.489418,51.099662],[71.488027,51.099849]]],[[[71.442508,50.877075],[71.373248,50.88633],[71.366702,50.866905],[71.436226,50.857604],[71.442508,50.877075]]]]}}]}